<?xml version="1.0" encoding="UTF-8"?>
<kml xmlns="http://www.opengis.net/kml/2.2"><Document>
<name>JFK_Paths_complete paths</name>
<Style id="pathStyle"><LineStyle><color>ffff7f3f</color><width>3</width></LineStyle></Style>
<Style id="nodeStyle"><IconStyle><color>ffff7f3f</color><scale>0.9</scale></IconStyle></Style>
<Style id="s1"><IconStyle><color>ff1e5d09</color></IconStyle></Style>
<Style id="s2"><IconStyle><color>ffffffff</color><scale>0.5</scale></IconStyle></Style>
<Folder><name>Nodes</name>
<Placemark><name>Zone 1</name><styleUrl>#s1</styleUrl><Point><coordinates>-73.792514,40.648946,0</coordinates></Point></Placemark>
<Placemark><name>1</name><styleUrl>#s1</styleUrl><Point><coordinates>-73.794482,40.646716,0</coordinates></Point></Placemark>
<Placemark><name>2</name><styleUrl>#s1</styleUrl><Point><coordinates>-73.795024,40.6471,0</coordinates></Point></Placemark>
<Placemark><name>3</name><styleUrl>#s1</styleUrl><Point><coordinates>-73.793085,40.646589,0</coordinates></Point></Placemark>
<Placemark><name>4</name><styleUrl>#s1</styleUrl><Point><coordinates>-73.794219,40.64747,0</coordinates></Point></Placemark>
<Placemark><name>5</name><styleUrl>#s1</styleUrl><Point><coordinates>-73.792401,40.64689,0</coordinates></Point></Placemark>
<Placemark><name>6</name><styleUrl>#s1</styleUrl><Point><coordinates>-73.793479,40.647808,0</coordinates></Point></Placemark>
<Placemark><name>7</name><styleUrl>#s1</styleUrl><Point><coordinates>-73.791727,40.647015,0</coordinates></Point></Placemark>
<Placemark><name>8</name><styleUrl>#s1</styleUrl><Point><coordinates>-73.79287,40.648148,0</coordinates></Point></Placemark>
<Placemark><name>12</name><styleUrl>#s1</styleUrl><Point><coordinates>-73.7918,40.648628,0</coordinates></Point></Placemark>
<Placemark><name>14</name><styleUrl>#s1</styleUrl><Point><coordinates>-73.79055,40.649198,0</coordinates></Point></Placemark>
<Placemark><name>16</name><styleUrl>#s1</styleUrl><Point><coordinates>-73.789745,40.649573,0</coordinates></Point></Placemark>
<Placemark><name>18</name><styleUrl>#s1</styleUrl><Point><coordinates>-73.789134,40.649117,0</coordinates></Point></Placemark>
<Placemark><name>20</name><styleUrl>#s1</styleUrl><Point><coordinates>-73.789011,40.648474,0</coordinates></Point></Placemark>
<Placemark><name>31</name><styleUrl>#s1</styleUrl><Point><coordinates>-73.795319,40.648562,0</coordinates></Point></Placemark>
<Placemark><name>32</name><styleUrl>#s1</styleUrl><Point><coordinates>-73.795992,40.649379,0</coordinates></Point></Placemark>
<Placemark><name>33</name><styleUrl>#s1</styleUrl><Point><coordinates>-73.794632,40.64877,0</coordinates></Point></Placemark>
<Placemark><name>34</name><styleUrl>#s1</styleUrl><Point><coordinates>-73.795382,40.649679,0</coordinates></Point></Placemark>
<Placemark><name>35</name><styleUrl>#s1</styleUrl><Point><coordinates>-73.794072,40.649001,0</coordinates></Point></Placemark>
<Placemark><name>36</name><styleUrl>#s1</styleUrl><Point><coordinates>-73.794703,40.649928,0</coordinates></Point></Placemark>
<Placemark><name>37</name><styleUrl>#s1</styleUrl><Point><coordinates>-73.793474,40.649216,0</coordinates></Point></Placemark>
<Placemark><name>38</name><styleUrl>#s1</styleUrl><Point><coordinates>-73.794133,40.650148,0</coordinates></Point></Placemark>
<Placemark><name>39</name><styleUrl>#s1</styleUrl><Point><coordinates>-73.792976,40.649477,0</coordinates></Point></Placemark>
<Placemark><name>40</name><styleUrl>#s1</styleUrl><Point><coordinates>-73.793596,40.650373,0</coordinates></Point></Placemark>
<Placemark><name>41</name><styleUrl>#s1</styleUrl><Point><coordinates>-73.792374,40.64967,0</coordinates></Point></Placemark>
<Placemark><name>42</name><styleUrl>#s1</styleUrl><Point><coordinates>-73.793043,40.65061,0</coordinates></Point></Placemark>
<Placemark><name>43</name><styleUrl>#s1</styleUrl><Point><coordinates>-73.791325,40.65013,0</coordinates></Point></Placemark>
<Placemark><name>44</name><styleUrl>#s1</styleUrl><Point><coordinates>-73.792531,40.650904,0</coordinates></Point></Placemark>
<Placemark><name>45</name><styleUrl>#s1</styleUrl><Point><coordinates>-73.790797,40.65044,0</coordinates></Point></Placemark>
<Placemark><name>46</name><styleUrl>#s1</styleUrl><Point><coordinates>-73.791882,40.651116,0</coordinates></Point></Placemark>
<Placemark><name>47</name><styleUrl>#s1</styleUrl><Point><coordinates>-73.790244,40.650775,0</coordinates></Point></Placemark>
<Placemark><name>12X</name><styleUrl>#s1</styleUrl><Point><coordinates>-73.791951,40.648543,0</coordinates></Point></Placemark>
<Placemark><name>46X</name><styleUrl>#s1</styleUrl><Point><coordinates>-73.791898,40.651073,0</coordinates></Point></Placemark>
<Placemark><name>47X</name><styleUrl>#s1</styleUrl><Point><coordinates>-73.790189,40.6508,0</coordinates></Point></Placemark>
<Placemark><name>8X</name><styleUrl>#s1</styleUrl><Point><coordinates>-73.792783,40.648199,0</coordinates></Point></Placemark>
<Placemark><name>BGRM CLAIM</name><styleUrl>#s1</styleUrl><Point><coordinates>-73.791565,40.647489,0</coordinates></Point></Placemark>
<Placemark><name>BGRM COLD</name><styleUrl>#s1</styleUrl><Point><coordinates>-73.791797,40.647693,0</coordinates></Point></Placemark>
<Placemark><name>FIS BELT</name><styleUrl>#s1</styleUrl><Point><coordinates>-73.791754,40.647789,0</coordinates></Point></Placemark>
<Placemark><name>FIS CLAIM BELT 4</name><styleUrl>#s1</styleUrl><Point><coordinates>-73.78992,40.648511,0</coordinates></Point></Placemark>
<Placemark><name>REROUTE</name><styleUrl>#s1</styleUrl><Point><coordinates>-73.792181,40.647869,0</coordinates></Point></Placemark>
<Placemark><name>p-001</name><styleUrl>#s2</styleUrl><Point><coordinates>-73.79165894895436,40.64690934103508,1.665783272518402</coordinates></Point></Placemark>
<Placemark><name>p-002</name><styleUrl>#s2</styleUrl><Point><coordinates>-73.79198549527403,40.64762843081123,2.902604281442591</coordinates></Point></Placemark>
<Placemark><name>p-003</name><styleUrl>#s2</styleUrl><Point><coordinates>-73.7922057568367,40.64666719286353,2.271535999652992</coordinates></Point></Placemark>
<Placemark><name>p-004</name><styleUrl>#s2</styleUrl><Point><coordinates>-73.79258706088719,40.64735140905675,2.364168396208677</coordinates></Point></Placemark>
<Placemark><name>p-005</name><styleUrl>#s2</styleUrl><Point><coordinates>-73.79298689995237,40.64637741447687,2.178168960622873</coordinates></Point></Placemark>
<Placemark><name>p-006</name><styleUrl>#s2</styleUrl><Point><coordinates>-73.7933780811068,40.64702237995571,2.812882058547339</coordinates></Point></Placemark>
<Placemark><name>p-007</name><styleUrl>#s2</styleUrl><Point><coordinates>-73.79414428586702,40.64670048485356,2.425501036308442</coordinates></Point></Placemark>
<Placemark><name>p-008</name><styleUrl>#s2</styleUrl><Point><coordinates>-73.79426113659463,40.64648249604472,2.282930023468139</coordinates></Point></Placemark>
<Placemark><name>p-009</name><styleUrl>#s2</styleUrl><Point><coordinates>-73.79502009200529,40.64653304769805,2.81227552380257</coordinates></Point></Placemark>
<Placemark><name>p-010</name><styleUrl>#s2</styleUrl><Point><coordinates>-73.79439121085703,40.64699978525348,2.425459838917783</coordinates></Point></Placemark>
<Placemark><name>p-011</name><styleUrl>#s2</styleUrl><Point><coordinates>-73.79567654201213,40.64727228860212,2.58003086426372</coordinates></Point></Placemark>
<Placemark><name>p-012</name><styleUrl>#s2</styleUrl><Point><coordinates>-73.79519639620466,40.6474907173621,2.121436312915184</coordinates></Point></Placemark>
<Placemark><name>p-013</name><styleUrl>#s2</styleUrl><Point><coordinates>-73.79446356681366,40.64780542894688,1.961838914491292</coordinates></Point></Placemark>
<Placemark><name>p-014</name><styleUrl>#s2</styleUrl><Point><coordinates>-73.79398524318731,40.64717225201148,2.579928124009137</coordinates></Point></Placemark>
<Placemark><name>p-015</name><styleUrl>#s2</styleUrl><Point><coordinates>-73.79419112330663,40.64793105708994,1.850758535200661</coordinates></Point></Placemark>
<Placemark><name>p-016</name><styleUrl>#s2</styleUrl><Point><coordinates>-73.79324429687773,40.64749158797181,2.580003895406653</coordinates></Point></Placemark>
<Placemark><name>p-018</name><styleUrl>#s2</styleUrl><Point><coordinates>-73.79260493571243,40.64776990427123,10.39778653938539</coordinates></Point></Placemark>
<Placemark><name>p-017</name><styleUrl>#s2</styleUrl><Point><coordinates>-73.79372265974658,40.64812908603643,1.86728431066761</coordinates></Point></Placemark>
<Placemark><name>p-019</name><styleUrl>#s2</styleUrl><Point><coordinates>-73.79249853771964,40.64781829943086,2.529038074626972</coordinates></Point></Placemark>
<Placemark><name>p-020</name><styleUrl>#s2</styleUrl><Point><coordinates>-73.79327327395289,40.64831991127559,1.893149354370722</coordinates></Point></Placemark>
<Placemark><name>p-021</name><styleUrl>#s2</styleUrl><Point><coordinates>-73.79306433349846,40.64840504183208,1.893920564091607</coordinates></Point></Placemark>
<Placemark><name>p-022</name><styleUrl>#s2</styleUrl><Point><coordinates>-73.79296841122556,40.64845003968254,1.875999447347576</coordinates></Point></Placemark>
<Placemark><name>p-023</name><styleUrl>#s2</styleUrl><Point><coordinates>-73.79214548521539,40.64879752766117,1.906563753564827</coordinates></Point></Placemark>
<Placemark><name>p-024</name><styleUrl>#s2</styleUrl><Point><coordinates>-73.79169391025238,40.64818570415049,2.525836381541779</coordinates></Point></Placemark>
<Placemark><name>p-025</name><styleUrl>#s2</styleUrl><Point><coordinates>-73.79186000191183,40.64892783285454,1.915301704279515</coordinates></Point></Placemark>
<Placemark><name>p-026</name><styleUrl>#s2</styleUrl><Point><coordinates>-73.79159428909496,40.64903596103307,1.957613726119136</coordinates></Point></Placemark>
<Placemark><name>p-027</name><styleUrl>#s2</styleUrl><Point><coordinates>-73.7911971260929,40.64841996149068,2.578815272456088</coordinates></Point></Placemark>
<Placemark><name>p-028</name><styleUrl>#s2</styleUrl><Point><coordinates>-73.79047453724762,40.6486668195118,21.69535355788701</coordinates></Point></Placemark>
<Placemark><name>p-029</name><styleUrl>#s2</styleUrl><Point><coordinates>-73.79065394195254,40.6494341369951,1.80731448624895</coordinates></Point></Placemark>
<Placemark><name>p-030</name><styleUrl>#s2</styleUrl><Point><coordinates>-73.7904535156734,40.64951944646957,1.885654375983419</coordinates></Point></Placemark>
<Placemark><name>p-031</name><styleUrl>#s2</styleUrl><Point><coordinates>-73.79001080409444,40.64892982839961,14.14852694306023</coordinates></Point></Placemark>
<Placemark><name>p-032</name><styleUrl>#s2</styleUrl><Point><coordinates>-73.7895870757838,40.64988649163897,1.961865454709895</coordinates></Point></Placemark>
<Placemark><name>p-033</name><styleUrl>#s2</styleUrl><Point><coordinates>-73.78991526714117,40.64882824671965,2.48252059310176</coordinates></Point></Placemark>
<Placemark><name>p-034</name><styleUrl>#s2</styleUrl><Point><coordinates>-73.78885018232977,40.64921188735947,2.165775684350366</coordinates></Point></Placemark>
<Placemark><name>p-035</name><styleUrl>#s2</styleUrl><Point><coordinates>-73.78999160187196,40.6504664003759,1.961892024636114</coordinates></Point></Placemark>
<Placemark><name>p-036</name><styleUrl>#s2</styleUrl><Point><coordinates>-73.78937512636186,40.650946880988144,2.443855028389148</coordinates></Point></Placemark>
<Placemark><name>p-037</name><styleUrl>#s2</styleUrl><Point><coordinates>-73.79069060734024,40.65125012421037,2.116403053328826</coordinates></Point></Placemark>
<Placemark><name>p-038</name><styleUrl>#s2</styleUrl><Point><coordinates>-73.79100195978556,40.6510964214427,1.961785708150379</coordinates></Point></Placemark>
<Placemark><name>p-039</name><styleUrl>#s2</styleUrl><Point><coordinates>-73.79098378805841,40.6507079117835,1.961839982550833</coordinates></Point></Placemark>
<Placemark><name>p-040</name><styleUrl>#s2</styleUrl><Point><coordinates>-73.79060445580375,40.65020992449599,8.329898154044187</coordinates></Point></Placemark>
<Placemark><name>p-041</name><styleUrl>#s2</styleUrl><Point><coordinates>-73.79148313204547,40.65049844386209,1.93485834272036</coordinates></Point></Placemark>
<Placemark><name>p-042</name><styleUrl>#s2</styleUrl><Point><coordinates>-73.79088426733169,40.65008553931789,1.498271794801986</coordinates></Point></Placemark>
<Placemark><name>p-043</name><styleUrl>#s2</styleUrl><Point><coordinates>-73.79129357134654,40.64992147054423,1.563371048019777</coordinates></Point></Placemark>
<Placemark><name>p-044</name><styleUrl>#s2</styleUrl><Point><coordinates>-73.791693377365,40.65085099031108,1.927092097014769</coordinates></Point></Placemark>
<Placemark><name>p-045</name><styleUrl>#s2</styleUrl><Point><coordinates>-73.79235204082988,40.65056048085254,1.807254094908821</coordinates></Point></Placemark>
<Placemark><name>p-046</name><styleUrl>#s2</styleUrl><Point><coordinates>-73.79191624820204,40.65027426195734,13.99016364711826</coordinates></Point></Placemark>
<Placemark><name>p-047</name><styleUrl>#s2</styleUrl><Point><coordinates>-73.79157976585802,40.64979925705305,1.6603460374475</coordinates></Point></Placemark>
<Placemark><name>p-048</name><styleUrl>#s2</styleUrl><Point><coordinates>-73.79262888692992,40.65000665056364,1.866561081576454</coordinates></Point></Placemark>
<Placemark><name>p-049</name><styleUrl>#s2</styleUrl><Point><coordinates>-73.79227180182494,40.64949840054924,1.498217084689826</coordinates></Point></Placemark>
<Placemark><name>p-050</name><styleUrl>#s2</styleUrl><Point><coordinates>-73.79320572510477,40.64976348897274,1.961885196128295</coordinates></Point></Placemark>
<Placemark><name>p-051</name><styleUrl>#s2</styleUrl><Point><coordinates>-73.7928184351869,40.64927028262633,1.498217746745276</coordinates></Point></Placemark>
<Placemark><name>p-052</name><styleUrl>#s2</styleUrl><Point><coordinates>-73.79375082393123,40.6495244515297,1.926896762363914</coordinates></Point></Placemark>
<Placemark><name>p-053</name><styleUrl>#s2</styleUrl><Point><coordinates>-73.79337193343778,40.64903238406924,1.404515129066028</coordinates></Point></Placemark>
<Placemark><name>p-054</name><styleUrl>#s2</styleUrl><Point><coordinates>-73.7942861208244,40.64930395414349,1.86136033044902</coordinates></Point></Placemark>
<Placemark><name>p-055</name><styleUrl>#s2</styleUrl><Point><coordinates>-73.79392334128198,40.64879633187727,1.424744176768964</coordinates></Point></Placemark>
<Placemark><name>p-056</name><styleUrl>#s2</styleUrl><Point><coordinates>-73.79478984059904,40.64907387507954,1.961877377366597</coordinates></Point></Placemark>
<Placemark><name>p-057</name><styleUrl>#s2</styleUrl><Point><coordinates>-73.79366690102256,40.64890105571983,1.498192495271364</coordinates></Point></Placemark>
<Placemark><name>p-058</name><styleUrl>#s2</styleUrl><Point><coordinates>-73.79459693097466,40.64849916758062,1.498199731197922</coordinates></Point></Placemark>
<Placemark><name>p-059</name><styleUrl>#s2</styleUrl><Point><coordinates>-73.79535086806823,40.6488549795593,1.961784927264463</coordinates></Point></Placemark>
<Placemark><name>p-060</name><styleUrl>#s2</styleUrl><Point><coordinates>-73.79534511640263,40.64818827614496,1.498227834603005</coordinates></Point></Placemark>
<Placemark><name>p-061</name><styleUrl>#s2</styleUrl><Point><coordinates>-73.79620180326145,40.6478238441707,1.961797810467427</coordinates></Point></Placemark>
<Placemark><name>p-062</name><styleUrl>#s2</styleUrl><Point><coordinates>-73.79556190551135,40.64911675339604,1.961881559067262</coordinates></Point></Placemark>
<Placemark><name>p-063</name><styleUrl>#s2</styleUrl><Point><coordinates>-73.79642809176522,40.64940249829209,2.270919972617469</coordinates></Point></Placemark>
<Placemark><name>p-064</name><styleUrl>#s2</styleUrl><Point><coordinates>-73.79599216516972,40.64955659248648,6.711021486142005</coordinates></Point></Placemark>
<Placemark><name>p-065</name><styleUrl>#s2</styleUrl><Point><coordinates>-73.79546852374799,40.64979085053746,1.646636535524242</coordinates></Point></Placemark>
<Placemark><name>p-066</name><styleUrl>#s2</styleUrl><Point><coordinates>-73.79504537473666,40.64939957714466,1.96180725890408</coordinates></Point></Placemark>
<Placemark><name>p-067</name><styleUrl>#s2</styleUrl><Point><coordinates>-73.79486447542932,40.65006699587976,1.337693054784108</coordinates></Point></Placemark>
<Placemark><name>p-068</name><styleUrl>#s2</styleUrl><Point><coordinates>-73.79452490360647,40.64963831367196,1.835366328812555</coordinates></Point></Placemark>
<Placemark><name>p-069</name><styleUrl>#s2</styleUrl><Point><coordinates>-73.79426415878217,40.65032102321656,1.454769650484498</coordinates></Point></Placemark>
<Placemark><name>p-070</name><styleUrl>#s2</styleUrl><Point><coordinates>-73.79394829319455,40.64987114746798,1.893185119511531</coordinates></Point></Placemark>
<Placemark><name>p-071</name><styleUrl>#s2</styleUrl><Point><coordinates>-73.79372771338207,40.6505420719032,1.43262959104099</coordinates></Point></Placemark>
<Placemark><name>p-072</name><styleUrl>#s2</styleUrl><Point><coordinates>-73.79339643821396,40.65010863653223,1.828238263536406</coordinates></Point></Placemark>
<Placemark><name>p-073</name><styleUrl>#s2</styleUrl><Point><coordinates>-73.79318408648042,40.65077018951497,1.369926992700357</coordinates></Point></Placemark>
<Placemark><name>p-074</name><styleUrl>#s2</styleUrl><Point><coordinates>-73.79285200116178,40.65032064723994,1.85554814847871</coordinates></Point></Placemark>
<Placemark><name>p-075</name><styleUrl>#s2</styleUrl><Point><coordinates>-73.79276705456675,40.65094124612229,1.424128527444564</coordinates></Point></Placemark>
<Placemark><name>p-076</name><styleUrl>#s2</styleUrl><Point><coordinates>-73.79220463590713,40.651188895865,1.732176375893226</coordinates></Point></Placemark>
<Placemark><name>PIT</name><styleUrl>#s1</styleUrl><Point><coordinates>-73.79023579181046,40.64880222534049,0</coordinates></Point></Placemark>
<Placemark><name>PPS</name><styleUrl>#s1</styleUrl><Point><coordinates>-73.79146724939348,40.64653530005305,0</coordinates></Point></Placemark>
<Placemark><name>p-077</name><styleUrl>#s2</styleUrl><Point><coordinates>-73.79139214754106,40.646944272411574,0</coordinates></Point></Placemark>
</Folder>
<Folder><name>Paths</name>
<Placemark><name>P-065↔P-067</name><description>p-065 -&gt; p-067 (59.5 m)</description><styleUrl>#pathStyle</styleUrl><LineString><tessellate>1</tessellate><coordinates>-73.79546852374799,40.64979085053746,1.646636535524242 -73.79486447542932,40.65006699587976,1.337693054784108</coordinates></LineString></Placemark>
<Placemark><name>P-067↔36</name><description>p-067 -&gt; 36 (20.6 m)</description><styleUrl>#pathStyle</styleUrl><LineString><tessellate>1</tessellate><coordinates>-73.79486447542932,40.65006699587976,1.337693054784108 -73.794703,40.649928,0</coordinates></LineString></Placemark>
<Placemark><name>36↔P-068</name><description>36 -&gt; p-068 (35.5 m)</description><styleUrl>#pathStyle</styleUrl><LineString><tessellate>1</tessellate><coordinates>-73.794703,40.649928,0 -73.79452490360647,40.64963831367196,1.835366328812555</coordinates></LineString></Placemark>
<Placemark><name>P-070↔P-068</name><description>p-070 -&gt; p-068 (55.1 m)</description><styleUrl>#pathStyle</styleUrl><LineString><tessellate>1</tessellate><coordinates>-73.79394829319455,40.64987114746798,1.893185119511531 -73.79452490360647,40.64963831367196,1.835366328812555</coordinates></LineString></Placemark>
<Placemark><name>38↔P-070</name><description>38 -&gt; p-070 (34.5 m)</description><styleUrl>#pathStyle</styleUrl><LineString><tessellate>1</tessellate><coordinates>-73.794133,40.650148,0 -73.79394829319455,40.64987114746798,1.893185119511531</coordinates></LineString></Placemark>
<Placemark><name>38↔P-069</name><description>38 -&gt; p-069 (22.2 m)</description><styleUrl>#pathStyle</styleUrl><LineString><tessellate>1</tessellate><coordinates>-73.794133,40.650148,0 -73.79426415878217,40.65032102321656,1.454769650484498</coordinates></LineString></Placemark>
<Placemark><name>P-067↔P-069</name><description>p-067 -&gt; p-069 (58.0 m)</description><styleUrl>#pathStyle</styleUrl><LineString><tessellate>1</tessellate><coordinates>-73.79486447542932,40.65006699587976,1.337693054784108 -73.79426415878217,40.65032102321656,1.454769650484498</coordinates></LineString></Placemark>
<Placemark><name>P-066↔P-068</name><description>p-066 -&gt; p-068 (51.3 m)</description><styleUrl>#pathStyle</styleUrl><LineString><tessellate>1</tessellate><coordinates>-73.79504537473666,40.64939957714466,1.96180725890408 -73.79452490360647,40.64963831367196,1.835366328812555</coordinates></LineString></Placemark>
<Placemark><name>P-066↔34</name><description>p-066 -&gt; 34 (42.1 m)</description><styleUrl>#pathStyle</styleUrl><LineString><tessellate>1</tessellate><coordinates>-73.79504537473666,40.64939957714466,1.96180725890408 -73.795382,40.649679,0</coordinates></LineString></Placemark>
<Placemark><name>34↔P-065</name><description>34 -&gt; p-065 (14.4 m)</description><styleUrl>#pathStyle</styleUrl><LineString><tessellate>1</tessellate><coordinates>-73.795382,40.649679,0 -73.79546852374799,40.64979085053746,1.646636535524242</coordinates></LineString></Placemark>
<Placemark><name>P-065↔P-064</name><description>p-065 -&gt; p-064 (51.3 m)</description><styleUrl>#pathStyle</styleUrl><LineString><tessellate>1</tessellate><coordinates>-73.79546852374799,40.64979085053746,1.646636535524242 -73.79599216516972,40.64955659248648,6.711021486142005</coordinates></LineString></Placemark>
<Placemark><name>P-064↔P-063</name><description>p-064 -&gt; p-063 (40.6 m)</description><styleUrl>#pathStyle</styleUrl><LineString><tessellate>1</tessellate><coordinates>-73.79599216516972,40.64955659248648,6.711021486142005 -73.79642809176522,40.64940249829209,2.270919972617469</coordinates></LineString></Placemark>
<Placemark><name>P-064↔32</name><description>p-064 -&gt; 32 (19.7 m)</description><styleUrl>#pathStyle</styleUrl><LineString><tessellate>1</tessellate><coordinates>-73.79599216516972,40.64955659248648,6.711021486142005 -73.795992,40.649379,0</coordinates></LineString></Placemark>
<Placemark><name>32↔P-062</name><description>32 -&gt; p-062 (46.6 m)</description><styleUrl>#pathStyle</styleUrl><LineString><tessellate>1</tessellate><coordinates>-73.795992,40.649379,0 -73.79556190551135,40.64911675339604,1.961881559067262</coordinates></LineString></Placemark>
<Placemark><name>P-063↔P-061</name><description>p-063 -&gt; p-061 (176.6 m)</description><styleUrl>#pathStyle</styleUrl><LineString><tessellate>1</tessellate><coordinates>-73.79642809176522,40.64940249829209,2.270919972617469 -73.79620180326145,40.6478238441707,1.961797810467427</coordinates></LineString></Placemark>
<Placemark><name>P-061↔P-060</name><description>p-061 -&gt; p-060 (82.9 m)</description><styleUrl>#pathStyle</styleUrl><LineString><tessellate>1</tessellate><coordinates>-73.79620180326145,40.6478238441707,1.961797810467427 -73.79534511640263,40.64818827614496,1.498227834603005</coordinates></LineString></Placemark>
<Placemark><name>P-060↔P-058</name><description>p-060 -&gt; p-058 (72.0 m)</description><styleUrl>#pathStyle</styleUrl><LineString><tessellate>1</tessellate><coordinates>-73.79534511640263,40.64818827614496,1.498227834603005 -73.79459693097466,40.64849916758062,1.498199731197922</coordinates></LineString></Placemark>
<Placemark><name>31↔P-060</name><description>31 -&gt; p-060 (41.6 m)</description><styleUrl>#pathStyle</styleUrl><LineString><tessellate>1</tessellate><coordinates>-73.795319,40.648562,0 -73.79534511640263,40.64818827614496,1.498227834603005</coordinates></LineString></Placemark>
<Placemark><name>P-059↔P-062</name><description>p-059 -&gt; p-062 (34.1 m)</description><styleUrl>#pathStyle</styleUrl><LineString><tessellate>1</tessellate><coordinates>-73.79535086806823,40.6488549795593,1.961784927264463 -73.79556190551135,40.64911675339604,1.961881559067262</coordinates></LineString></Placemark>
<Placemark><name>P-062↔P-066</name><description>p-062 -&gt; p-066 (53.7 m)</description><styleUrl>#pathStyle</styleUrl><LineString><tessellate>1</tessellate><coordinates>-73.79556190551135,40.64911675339604,1.961881559067262 -73.79504537473666,40.64939957714466,1.96180725890408</coordinates></LineString></Placemark>
<Placemark><name>P-059↔31</name><description>p-059 -&gt; 31 (32.7 m)</description><styleUrl>#pathStyle</styleUrl><LineString><tessellate>1</tessellate><coordinates>-73.79535086806823,40.6488549795593,1.961784927264463 -73.795319,40.648562,0</coordinates></LineString></Placemark>
<Placemark><name>P-059↔P-056</name><description>p-059 -&gt; p-056 (53.2 m)</description><styleUrl>#pathStyle</styleUrl><LineString><tessellate>1</tessellate><coordinates>-73.79535086806823,40.6488549795593,1.961784927264463 -73.79478984059904,40.64907387507954,1.961877377366597</coordinates></LineString></Placemark>
<Placemark><name>P-056↔33</name><description>p-056 -&gt; 33 (36.3 m)</description><styleUrl>#pathStyle</styleUrl><LineString><tessellate>1</tessellate><coordinates>-73.79478984059904,40.64907387507954,1.961877377366597 -73.794632,40.64877,0</coordinates></LineString></Placemark>
<Placemark><name>33↔P-058</name><description>33 -&gt; p-058 (30.3 m)</description><styleUrl>#pathStyle</styleUrl><LineString><tessellate>1</tessellate><coordinates>-73.794632,40.64877,0 -73.79459693097466,40.64849916758062,1.498199731197922</coordinates></LineString></Placemark>
<Placemark><name>P-054↔P-056</name><description>p-054 -&gt; p-056 (49.6 m)</description><styleUrl>#pathStyle</styleUrl><LineString><tessellate>1</tessellate><coordinates>-73.7942861208244,40.64930395414349,1.86136033044902 -73.79478984059904,40.64907387507954,1.961877377366597</coordinates></LineString></Placemark>
<Placemark><name>P-054↔35</name><description>p-054 -&gt; 35 (38.2 m)</description><styleUrl>#pathStyle</styleUrl><LineString><tessellate>1</tessellate><coordinates>-73.7942861208244,40.64930395414349,1.86136033044902 -73.794072,40.649001,0</coordinates></LineString></Placemark>
<Placemark><name>35↔P-055</name><description>35 -&gt; p-055 (26.0 m)</description><styleUrl>#pathStyle</styleUrl><LineString><tessellate>1</tessellate><coordinates>-73.794072,40.649001,0 -73.79392334128198,40.64879633187727,1.424744176768964</coordinates></LineString></Placemark>
<Placemark><name>P-055↔P-058</name><description>p-055 -&gt; p-058 (65.7 m)</description><styleUrl>#pathStyle</styleUrl><LineString><tessellate>1</tessellate><coordinates>-73.79392334128198,40.64879633187727,1.424744176768964 -73.79459693097466,40.64849916758062,1.498199731197922</coordinates></LineString></Placemark>
<Placemark><name>P-055↔P-057</name><description>p-055 -&gt; p-057 (24.6 m)</description><styleUrl>#pathStyle</styleUrl><LineString><tessellate>1</tessellate><coordinates>-73.79392334128198,40.64879633187727,1.424744176768964 -73.79366690102256,40.64890105571983,1.498192495271364</coordinates></LineString></Placemark>
<Placemark><name>P-057↔P-053</name><description>p-057 -&gt; p-053 (28.9 m)</description><styleUrl>#pathStyle</styleUrl><LineString><tessellate>1</tessellate><coordinates>-73.79366690102256,40.64890105571983,1.498192495271364 -73.79337193343778,40.64903238406924,1.404515129066028</coordinates></LineString></Placemark>
<Placemark><name>P-057↔P-020</name><description>p-057 -&gt; p-020 (72.7 m)</description><styleUrl>#pathStyle</styleUrl><LineString><tessellate>1</tessellate><coordinates>-73.79366690102256,40.64890105571983,1.498192495271364 -73.79327327395289,40.64831991127559,1.893149354370722</coordinates></LineString></Placemark>
<Placemark><name>P-058↔P-015</name><description>p-058 -&gt; p-015 (71.9 m)</description><styleUrl>#pathStyle</styleUrl><LineString><tessellate>1</tessellate><coordinates>-73.79459693097466,40.64849916758062,1.498199731197922 -73.79419112330663,40.64793105708994,1.850758535200661</coordinates></LineString></Placemark>
<Placemark><name>P-052↔P-054</name><description>p-052 -&gt; p-054 (51.4 m)</description><styleUrl>#pathStyle</styleUrl><LineString><tessellate>1</tessellate><coordinates>-73.79375082393123,40.6495244515297,1.926896762363914 -73.7942861208244,40.64930395414349,1.86136033044902</coordinates></LineString></Placemark>
<Placemark><name>P-052↔37</name><description>p-052 -&gt; 37 (41.5 m)</description><styleUrl>#pathStyle</styleUrl><LineString><tessellate>1</tessellate><coordinates>-73.79375082393123,40.6495244515297,1.926896762363914 -73.793474,40.649216,0</coordinates></LineString></Placemark>
<Placemark><name>37↔P-053</name><description>37 -&gt; p-053 (22.2 m)</description><styleUrl>#pathStyle</styleUrl><LineString><tessellate>1</tessellate><coordinates>-73.793474,40.649216,0 -73.79337193343778,40.64903238406924,1.404515129066028</coordinates></LineString></Placemark>
<Placemark><name>39↔P-051</name><description>39 -&gt; p-051 (26.6 m)</description><styleUrl>#pathStyle</styleUrl><LineString><tessellate>1</tessellate><coordinates>-73.792976,40.649477,0 -73.7928184351869,40.64927028262633,1.498217746745276</coordinates></LineString></Placemark>
<Placemark><name>P-053↔P-051</name><description>p-053 -&gt; p-051 (53.7 m)</description><styleUrl>#pathStyle</styleUrl><LineString><tessellate>1</tessellate><coordinates>-73.79337193343778,40.64903238406924,1.404515129066028 -73.7928184351869,40.64927028262633,1.498217746745276</coordinates></LineString></Placemark>
<Placemark><name>P-050↔P-052</name><description>p-050 -&gt; p-052 (53.1 m)</description><styleUrl>#pathStyle</styleUrl><LineString><tessellate>1</tessellate><coordinates>-73.79320572510477,40.64976348897274,1.961885196128295 -73.79375082393123,40.6495244515297,1.926896762363914</coordinates></LineString></Placemark>
<Placemark><name>39↔P-050</name><description>39 -&gt; p-050 (37.3 m)</description><styleUrl>#pathStyle</styleUrl><LineString><tessellate>1</tessellate><coordinates>-73.792976,40.649477,0 -73.79320572510477,40.64976348897274,1.961885196128295</coordinates></LineString></Placemark>
<Placemark><name>P-070↔P-072</name><description>p-070 -&gt; p-072 (53.5 m)</description><styleUrl>#pathStyle</styleUrl><LineString><tessellate>1</tessellate><coordinates>-73.79394829319455,40.64987114746798,1.893185119511531 -73.79339643821396,40.65010863653223,1.828238263536406</coordinates></LineString></Placemark>
<Placemark><name>P-071↔P-069</name><description>p-071 -&gt; p-069 (51.5 m)</description><styleUrl>#pathStyle</styleUrl><LineString><tessellate>1</tessellate><coordinates>-73.79372771338207,40.6505420719032,1.43262959104099 -73.79426415878217,40.65032102321656,1.454769650484498</coordinates></LineString></Placemark>
<Placemark><name>P-071↔40</name><description>p-071 -&gt; 40 (21.8 m)</description><styleUrl>#pathStyle</styleUrl><LineString><tessellate>1</tessellate><coordinates>-73.79372771338207,40.6505420719032,1.43262959104099 -73.793596,40.650373,0</coordinates></LineString></Placemark>
<Placemark><name>P-072↔40</name><description>p-072 -&gt; 40 (33.9 m)</description><styleUrl>#pathStyle</styleUrl><LineString><tessellate>1</tessellate><coordinates>-73.79339643821396,40.65010863653223,1.828238263536406 -73.793596,40.650373,0</coordinates></LineString></Placemark>
<Placemark><name>P-073↔P-071</name><description>p-073 -&gt; p-071 (52.4 m)</description><styleUrl>#pathStyle</styleUrl><LineString><tessellate>1</tessellate><coordinates>-73.79318408648042,40.65077018951497,1.369926992700357 -73.79372771338207,40.6505420719032,1.43262959104099</coordinates></LineString></Placemark>
<Placemark><name>42↔P-073</name><description>42 -&gt; p-073 (21.4 m)</description><styleUrl>#pathStyle</styleUrl><LineString><tessellate>1</tessellate><coordinates>-73.793043,40.65061,0 -73.79318408648042,40.65077018951497,1.369926992700357</coordinates></LineString></Placemark>
<Placemark><name>42↔P-074</name><description>42 -&gt; p-074 (36.0 m)</description><styleUrl>#pathStyle</styleUrl><LineString><tessellate>1</tessellate><coordinates>-73.793043,40.65061,0 -73.79285200116178,40.65032064723994,1.85554814847871</coordinates></LineString></Placemark>
<Placemark><name>P-072↔P-074</name><description>p-072 -&gt; p-074 (51.6 m)</description><styleUrl>#pathStyle</styleUrl><LineString><tessellate>1</tessellate><coordinates>-73.79339643821396,40.65010863653223,1.828238263536406 -73.79285200116178,40.65032064723994,1.85554814847871</coordinates></LineString></Placemark>
<Placemark><name>P-045↔P-074</name><description>p-045 -&gt; p-074 (49.9 m)</description><styleUrl>#pathStyle</styleUrl><LineString><tessellate>1</tessellate><coordinates>-73.79235204082988,40.65056048085254,1.807254094908821 -73.79285200116178,40.65032064723994,1.85554814847871</coordinates></LineString></Placemark>
<Placemark><name>P-073↔P-075</name><description>p-073 -&gt; p-075 (40.0 m)</description><styleUrl>#pathStyle</styleUrl><LineString><tessellate>1</tessellate><coordinates>-73.79318408648042,40.65077018951497,1.369926992700357 -73.79276705456675,40.65094124612229,1.424128527444564</coordinates></LineString></Placemark>
<Placemark><name>44↔P-075</name><description>44 -&gt; p-075 (20.3 m)</description><styleUrl>#pathStyle</styleUrl><LineString><tessellate>1</tessellate><coordinates>-73.792531,40.650904,0 -73.79276705456675,40.65094124612229,1.424128527444564</coordinates></LineString></Placemark>
<Placemark><name>P-076↔44</name><description>p-076 -&gt; 44 (42.0 m)</description><styleUrl>#pathStyle</styleUrl><LineString><tessellate>1</tessellate><coordinates>-73.79220463590713,40.651188895865,1.732176375893226 -73.792531,40.650904,0</coordinates></LineString></Placemark>
<Placemark><name>46X↔P-076</name><description>46X -&gt; p-076 (28.9 m)</description><styleUrl>#pathStyle</styleUrl><LineString><tessellate>1</tessellate><coordinates>-73.791898,40.651073,0 -73.79220463590713,40.651188895865,1.732176375893226</coordinates></LineString></Placemark>
<Placemark><name>P-076↔46</name><description>p-076 -&gt; 46 (28.4 m)</description><styleUrl>#pathStyle</styleUrl><LineString><tessellate>1</tessellate><coordinates>-73.79220463590713,40.651188895865,1.732176375893226 -73.791882,40.651116,0</coordinates></LineString></Placemark>
<Placemark><name>P-038↔P-044</name><description>p-038 -&gt; p-044 (64.4 m)</description><styleUrl>#pathStyle</styleUrl><LineString><tessellate>1</tessellate><coordinates>-73.79100195978556,40.6510964214427,1.961785708150379 -73.791693377365,40.65085099031108,1.927092097014769</coordinates></LineString></Placemark>
<Placemark><name>46X↔P-044</name><description>46X -&gt; p-044 (30.1 m)</description><styleUrl>#pathStyle</styleUrl><LineString><tessellate>1</tessellate><coordinates>-73.791898,40.651073,0 -73.791693377365,40.65085099031108,1.927092097014769</coordinates></LineString></Placemark>
<Placemark><name>46↔P-044</name><description>46 -&gt; p-044 (33.5 m)</description><styleUrl>#pathStyle</styleUrl><LineString><tessellate>1</tessellate><coordinates>-73.791882,40.651116,0 -73.791693377365,40.65085099031108,1.927092097014769</coordinates></LineString></Placemark>
<Placemark><name>P-037↔P-038</name><description>p-037 -&gt; p-038 (31.3 m)</description><styleUrl>#pathStyle</styleUrl><LineString><tessellate>1</tessellate><coordinates>-73.79069060734024,40.65125012421037,2.116403053328826 -73.79100195978556,40.6510964214427,1.961785708150379</coordinates></LineString></Placemark>
<Placemark><name>P-076↔P-037</name><description>p-076 -&gt; p-037 (127.9 m)</description><styleUrl>#pathStyle</styleUrl><LineString><tessellate>1</tessellate><coordinates>-73.79220463590713,40.651188895865,1.732176375893226 -73.79069060734024,40.65125012421037,2.116403053328826</coordinates></LineString></Placemark>
<Placemark><name>P-076↔P-038</name><description>p-076 -&gt; p-038 (102.0 m)</description><styleUrl>#pathStyle</styleUrl><LineString><tessellate>1</tessellate><coordinates>-73.79220463590713,40.651188895865,1.732176375893226 -73.79100195978556,40.6510964214427,1.961785708150379</coordinates></LineString></Placemark>
<Placemark><name>P-037↔47X</name><description>p-037 -&gt; 47X (65.5 m)</description><styleUrl>#pathStyle</styleUrl><LineString><tessellate>1</tessellate><coordinates>-73.79069060734024,40.65125012421037,2.116403053328826 -73.790189,40.6508,0</coordinates></LineString></Placemark>
<Placemark><name>47X↔P-035</name><description>47X -&gt; p-035 (40.7 m)</description><styleUrl>#pathStyle</styleUrl><LineString><tessellate>1</tessellate><coordinates>-73.790189,40.6508,0 -73.78999160187196,40.6504664003759,1.961892024636114</coordinates></LineString></Placemark>
<Placemark><name>P-037↔47</name><description>p-037 -&gt; 47 (64.9 m)</description><styleUrl>#pathStyle</styleUrl><LineString><tessellate>1</tessellate><coordinates>-73.79069060734024,40.65125012421037,2.116403053328826 -73.790244,40.650775,0</coordinates></LineString></Placemark>
<Placemark><name>47↔P-035</name><description>47 -&gt; p-035 (40.4 m)</description><styleUrl>#pathStyle</styleUrl><LineString><tessellate>1</tessellate><coordinates>-73.790244,40.650775,0 -73.78999160187196,40.6504664003759,1.961892024636114</coordinates></LineString></Placemark>
<Placemark><name>P-038↔P-039</name><description>p-038 -&gt; p-039 (43.2 m)</description><styleUrl>#pathStyle</styleUrl><LineString><tessellate>1</tessellate><coordinates>-73.79100195978556,40.6510964214427,1.961785708150379 -73.79098378805841,40.6507079117835,1.961839982550833</coordinates></LineString></Placemark>
<Placemark><name>P-039↔45</name><description>p-039 -&gt; 45 (33.7 m)</description><styleUrl>#pathStyle</styleUrl><LineString><tessellate>1</tessellate><coordinates>-73.79098378805841,40.6507079117835,1.961839982550833 -73.790797,40.65044,0</coordinates></LineString></Placemark>
<Placemark><name>P-040↔45</name><description>p-040 -&gt; 45 (30.3 m)</description><styleUrl>#pathStyle</styleUrl><LineString><tessellate>1</tessellate><coordinates>-73.79060445580375,40.65020992449599,8.329898154044187 -73.790797,40.65044,0</coordinates></LineString></Placemark>
<Placemark><name>P-035↔P-040</name><description>p-035 -&gt; p-040 (59.0 m)</description><styleUrl>#pathStyle</styleUrl><LineString><tessellate>1</tessellate><coordinates>-73.78999160187196,40.6504664003759,1.961892024636114 -73.79060445580375,40.65020992449599,8.329898154044187</coordinates></LineString></Placemark>
<Placemark><name>P-045↔44</name><description>p-045 -&gt; 44 (41.1 m)</description><styleUrl>#pathStyle</styleUrl><LineString><tessellate>1</tessellate><coordinates>-73.79235204082988,40.65056048085254,1.807254094908821 -73.792531,40.650904,0</coordinates></LineString></Placemark>
<Placemark><name>P-045↔P-044</name><description>p-045 -&gt; p-044 (64.3 m)</description><styleUrl>#pathStyle</styleUrl><LineString><tessellate>1</tessellate><coordinates>-73.79235204082988,40.65056048085254,1.807254094908821 -73.791693377365,40.65085099031108,1.927092097014769</coordinates></LineString></Placemark>
<Placemark><name>P-037↔P-036</name><description>p-037 -&gt; p-036 (116.0 m)</description><styleUrl>#pathStyle</styleUrl><LineString><tessellate>1</tessellate><coordinates>-73.79069060734024,40.65125012421037,2.116403053328826 -73.78937512636186,40.650946880988144,2.443855028389148</coordinates></LineString></Placemark>
<Placemark><name>P-036↔P-035</name><description>p-036 -&gt; p-035 (74.6 m)</description><styleUrl>#pathStyle</styleUrl><LineString><tessellate>1</tessellate><coordinates>-73.78937512636186,40.650946880988144,2.443855028389148 -73.78999160187196,40.6504664003759,1.961892024636114</coordinates></LineString></Placemark>
<Placemark><name>P-032↔P-035</name><description>p-032 -&gt; p-035 (73.0 m)</description><styleUrl>#pathStyle</styleUrl><LineString><tessellate>1</tessellate><coordinates>-73.7895870757838,40.64988649163897,1.961865454709895 -73.78999160187196,40.6504664003759,1.961892024636114</coordinates></LineString></Placemark>
<Placemark><name>P-042↔P-040</name><description>p-042 -&gt; p-040 (27.4 m)</description><styleUrl>#pathStyle</styleUrl><LineString><tessellate>1</tessellate><coordinates>-73.79088426733169,40.65008553931789,1.498271794801986 -73.79060445580375,40.65020992449599,8.329898154044187</coordinates></LineString></Placemark>
<Placemark><name>P-041↔43</name><description>p-041 -&gt; 43 (43.1 m)</description><styleUrl>#pathStyle</styleUrl><LineString><tessellate>1</tessellate><coordinates>-73.79148313204547,40.65049844386209,1.93485834272036 -73.791325,40.65013,0</coordinates></LineString></Placemark>
<Placemark><name>P-043↔P-042</name><description>p-043 -&gt; p-042 (39.1 m)</description><styleUrl>#pathStyle</styleUrl><LineString><tessellate>1</tessellate><coordinates>-73.79129357134654,40.64992147054423,1.563371048019777 -73.79088426733169,40.65008553931789,1.498271794801986</coordinates></LineString></Placemark>
<Placemark><name>43↔P-043</name><description>43 -&gt; p-043 (23.3 m)</description><styleUrl>#pathStyle</styleUrl><LineString><tessellate>1</tessellate><coordinates>-73.791325,40.65013,0 -73.79129357134654,40.64992147054423,1.563371048019777</coordinates></LineString></Placemark>
<Placemark><name>P-046↔P-041</name><description>p-046 -&gt; p-041 (44.2 m)</description><styleUrl>#pathStyle</styleUrl><LineString><tessellate>1</tessellate><coordinates>-73.79191624820204,40.65027426195734,13.99016364711826 -73.79148313204547,40.65049844386209,1.93485834272036</coordinates></LineString></Placemark>
<Placemark><name>P-046↔P-047</name><description>p-046 -&gt; p-047 (60.0 m)</description><styleUrl>#pathStyle</styleUrl><LineString><tessellate>1</tessellate><coordinates>-73.79191624820204,40.65027426195734,13.99016364711826 -73.79157976585802,40.64979925705305,1.6603460374475</coordinates></LineString></Placemark>
<Placemark><name>P-048↔P-046</name><description>p-048 -&gt; p-046 (67.1 m)</description><styleUrl>#pathStyle</styleUrl><LineString><tessellate>1</tessellate><coordinates>-73.79262888692992,40.65000665056364,1.866561081576454 -73.79191624820204,40.65027426195734,13.99016364711826</coordinates></LineString></Placemark>
<Placemark><name>P-048↔41</name><description>p-048 -&gt; 41 (43.2 m)</description><styleUrl>#pathStyle</styleUrl><LineString><tessellate>1</tessellate><coordinates>-73.79262888692992,40.65000665056364,1.866561081576454 -73.792374,40.64967,0</coordinates></LineString></Placemark>
<Placemark><name>41↔P-049</name><description>41 -&gt; p-049 (20.9 m)</description><styleUrl>#pathStyle</styleUrl><LineString><tessellate>1</tessellate><coordinates>-73.792374,40.64967,0 -73.79227180182494,40.64949840054924,1.498217084689826</coordinates></LineString></Placemark>
<Placemark><name>P-047↔P-049</name><description>p-047 -&gt; p-049 (67.3 m)</description><styleUrl>#pathStyle</styleUrl><LineString><tessellate>1</tessellate><coordinates>-73.79157976585802,40.64979925705305,1.6603460374475 -73.79227180182494,40.64949840054924,1.498217084689826</coordinates></LineString></Placemark>
<Placemark><name>P-048↔P-050</name><description>p-048 -&gt; p-050 (55.7 m)</description><styleUrl>#pathStyle</styleUrl><LineString><tessellate>1</tessellate><coordinates>-73.79262888692992,40.65000665056364,1.866561081576454 -73.79320572510477,40.64976348897274,1.961885196128295</coordinates></LineString></Placemark>
<Placemark><name>P-051↔P-049</name><description>p-051 -&gt; p-049 (52.6 m)</description><styleUrl>#pathStyle</styleUrl><LineString><tessellate>1</tessellate><coordinates>-73.7928184351869,40.64927028262633,1.498217746745276 -73.79227180182494,40.64949840054924,1.498217084689826</coordinates></LineString></Placemark>
<Placemark><name>P-047↔P-043</name><description>p-047 -&gt; p-043 (27.7 m)</description><styleUrl>#pathStyle</styleUrl><LineString><tessellate>1</tessellate><coordinates>-73.79157976585802,40.64979925705305,1.6603460374475 -73.79129357134654,40.64992147054423,1.563371048019777</coordinates></LineString></Placemark>
<Placemark><name>P-048↔P-045</name><description>p-048 -&gt; p-045 (65.9 m)</description><styleUrl>#pathStyle</styleUrl><LineString><tessellate>1</tessellate><coordinates>-73.79262888692992,40.65000665056364,1.866561081576454 -73.79235204082988,40.65056048085254,1.807254094908821</coordinates></LineString></Placemark>
<Placemark><name>P-045↔P-046</name><description>p-045 -&gt; p-046 (48.6 m)</description><styleUrl>#pathStyle</styleUrl><LineString><tessellate>1</tessellate><coordinates>-73.79235204082988,40.65056048085254,1.807254094908821 -73.79191624820204,40.65027426195734,13.99016364711826</coordinates></LineString></Placemark>
<Placemark><name>P-041↔P-039</name><description>p-041 -&gt; p-039 (48.1 m)</description><styleUrl>#pathStyle</styleUrl><LineString><tessellate>1</tessellate><coordinates>-73.79148313204547,40.65049844386209,1.93485834272036 -73.79098378805841,40.6507079117835,1.961839982550833</coordinates></LineString></Placemark>
<Placemark><name>P-042↔P-030</name><description>p-042 -&gt; p-030 (72.7 m)</description><styleUrl>#pathStyle</styleUrl><LineString><tessellate>1</tessellate><coordinates>-73.79088426733169,40.65008553931789,1.498271794801986 -73.7904535156734,40.64951944646957,1.885654375983419</coordinates></LineString></Placemark>
<Placemark><name>P-030↔P-029</name><description>p-030 -&gt; p-029 (19.4 m)</description><styleUrl>#pathStyle</styleUrl><LineString><tessellate>1</tessellate><coordinates>-73.7904535156734,40.64951944646957,1.885654375983419 -73.79065394195254,40.6494341369951,1.80731448624895</coordinates></LineString></Placemark>
<Placemark><name>P-047↔P-026</name><description>p-047 -&gt; p-026 (84.9 m)</description><styleUrl>#pathStyle</styleUrl><LineString><tessellate>1</tessellate><coordinates>-73.79157976585802,40.64979925705305,1.6603460374475 -73.79159428909496,40.64903596103307,1.957613726119136</coordinates></LineString></Placemark>
<Placemark><name>P-029↔P-026</name><description>p-029 -&gt; p-026 (90.9 m)</description><styleUrl>#pathStyle</styleUrl><LineString><tessellate>1</tessellate><coordinates>-73.79065394195254,40.6494341369951,1.80731448624895 -73.79159428909496,40.64903596103307,1.957613726119136</coordinates></LineString></Placemark>
<Placemark><name>P-025↔P-026</name><description>p-025 -&gt; p-026 (25.4 m)</description><styleUrl>#pathStyle</styleUrl><LineString><tessellate>1</tessellate><coordinates>-73.79186000191183,40.64892783285454,1.915301704279515 -73.79159428909496,40.64903596103307,1.957613726119136</coordinates></LineString></Placemark>
<Placemark><name>P-023↔P-025</name><description>p-023 -&gt; p-025 (28.1 m)</description><styleUrl>#pathStyle</styleUrl><LineString><tessellate>1</tessellate><coordinates>-73.79214548521539,40.64879752766117,1.906563753564827 -73.79186000191183,40.64892783285454,1.915301704279515</coordinates></LineString></Placemark>
<Placemark><name>P-023↔P-022</name><description>p-023 -&gt; p-022 (79.5 m)</description><styleUrl>#pathStyle</styleUrl><LineString><tessellate>1</tessellate><coordinates>-73.79214548521539,40.64879752766117,1.906563753564827 -73.79296841122556,40.64845003968254,1.875999447347576</coordinates></LineString></Placemark>
<Placemark><name>P-022↔P-021</name><description>p-022 -&gt; p-021 (9.5 m)</description><styleUrl>#pathStyle</styleUrl><LineString><tessellate>1</tessellate><coordinates>-73.79296841122556,40.64845003968254,1.875999447347576 -73.79306433349846,40.64840504183208,1.893920564091607</coordinates></LineString></Placemark>
<Placemark><name>P-021↔P-020</name><description>p-021 -&gt; p-020 (20.0 m)</description><styleUrl>#pathStyle</styleUrl><LineString><tessellate>1</tessellate><coordinates>-73.79306433349846,40.64840504183208,1.893920564091607 -73.79327327395289,40.64831991127559,1.893149354370722</coordinates></LineString></Placemark>
<Placemark><name>P-017↔P-020</name><description>p-017 -&gt; p-020 (43.4 m)</description><styleUrl>#pathStyle</styleUrl><LineString><tessellate>1</tessellate><coordinates>-73.79372265974658,40.64812908603643,1.86728431066761 -73.79327327395289,40.64831991127559,1.893149354370722</coordinates></LineString></Placemark>
<Placemark><name>P-015↔P-017</name><description>p-015 -&gt; p-017 (45.2 m)</description><styleUrl>#pathStyle</styleUrl><LineString><tessellate>1</tessellate><coordinates>-73.79419112330663,40.64793105708994,1.850758535200661 -73.79372265974658,40.64812908603643,1.86728431066761</coordinates></LineString></Placemark>
<Placemark><name>P-013↔P-015</name><description>p-013 -&gt; p-015 (26.9 m)</description><styleUrl>#pathStyle</styleUrl><LineString><tessellate>1</tessellate><coordinates>-73.79446356681366,40.64780542894688,1.961838914491292 -73.79419112330663,40.64793105708994,1.850758535200661</coordinates></LineString></Placemark>
<Placemark><name>P-012↔P-013</name><description>p-012 -&gt; p-013 (71.0 m)</description><styleUrl>#pathStyle</styleUrl><LineString><tessellate>1</tessellate><coordinates>-73.79519639620466,40.6474907173621,2.121436312915184 -73.79446356681366,40.64780542894688,1.961838914491292</coordinates></LineString></Placemark>
<Placemark><name>P-011↔P-012</name><description>p-011 -&gt; p-012 (47.2 m)</description><styleUrl>#pathStyle</styleUrl><LineString><tessellate>1</tessellate><coordinates>-73.79567654201213,40.64727228860212,2.58003086426372 -73.79519639620466,40.6474907173621,2.121436312915184</coordinates></LineString></Placemark>
<Placemark><name>P-061↔P-011</name><description>p-061 -&gt; p-011 (75.7 m)</description><styleUrl>#pathStyle</styleUrl><LineString><tessellate>1</tessellate><coordinates>-73.79620180326145,40.6478238441707,1.961797810467427 -73.79567654201213,40.64727228860212,2.58003086426372</coordinates></LineString></Placemark>
<Placemark><name>P-011↔P-009</name><description>p-011 -&gt; p-009 (99.1 m)</description><styleUrl>#pathStyle</styleUrl><LineString><tessellate>1</tessellate><coordinates>-73.79567654201213,40.64727228860212,2.58003086426372 -73.79502009200529,40.64653304769805,2.81227552380257</coordinates></LineString></Placemark>
<Placemark><name>P-012↔2</name><description>p-012 -&gt; 2 (45.8 m)</description><styleUrl>#pathStyle</styleUrl><LineString><tessellate>1</tessellate><coordinates>-73.79519639620466,40.6474907173621,2.121436312915184 -73.795024,40.6471,0</coordinates></LineString></Placemark>
<Placemark><name>2↔P-009</name><description>2 -&gt; p-009 (63.0 m)</description><styleUrl>#pathStyle</styleUrl><LineString><tessellate>1</tessellate><coordinates>-73.795024,40.6471,0 -73.79502009200529,40.64653304769805,2.81227552380257</coordinates></LineString></Placemark>
<Placemark><name>2↔P-010</name><description>2 -&gt; p-010 (54.5 m)</description><styleUrl>#pathStyle</styleUrl><LineString><tessellate>1</tessellate><coordinates>-73.795024,40.6471,0 -73.79439121085703,40.64699978525348,2.425459838917783</coordinates></LineString></Placemark>
<Placemark><name>P-010↔1</name><description>p-010 -&gt; 1 (32.5 m)</description><styleUrl>#pathStyle</styleUrl><LineString><tessellate>1</tessellate><coordinates>-73.79439121085703,40.64699978525348,2.425459838917783 -73.794482,40.646716,0</coordinates></LineString></Placemark>
<Placemark><name>P-009↔1</name><description>p-009 -&gt; 1 (49.7 m)</description><styleUrl>#pathStyle</styleUrl><LineString><tessellate>1</tessellate><coordinates>-73.79502009200529,40.64653304769805,2.81227552380257 -73.794482,40.646716,0</coordinates></LineString></Placemark>
<Placemark><name>1↔P-007</name><description>1 -&gt; p-007 (28.5 m)</description><styleUrl>#pathStyle</styleUrl><LineString><tessellate>1</tessellate><coordinates>-73.794482,40.646716,0 -73.79414428586702,40.64670048485356,2.425501036308442</coordinates></LineString></Placemark>
<Placemark><name>P-007↔P-008</name><description>p-007 -&gt; p-008 (26.2 m)</description><styleUrl>#pathStyle</styleUrl><LineString><tessellate>1</tessellate><coordinates>-73.79414428586702,40.64670048485356,2.425501036308442 -73.79426113659463,40.64648249604472,2.282930023468139</coordinates></LineString></Placemark>
<Placemark><name>P-008↔P-009</name><description>p-008 -&gt; p-009 (64.3 m)</description><styleUrl>#pathStyle</styleUrl><LineString><tessellate>1</tessellate><coordinates>-73.79426113659463,40.64648249604472,2.282930023468139 -73.79502009200529,40.64653304769805,2.81227552380257</coordinates></LineString></Placemark>
<Placemark><name>P-008↔P-005</name><description>p-008 -&gt; p-005 (108.1 m)</description><styleUrl>#pathStyle</styleUrl><LineString><tessellate>1</tessellate><coordinates>-73.79426113659463,40.64648249604472,2.282930023468139 -73.79298689995237,40.64637741447687,2.178168960622873</coordinates></LineString></Placemark>
<Placemark><name>3↔P-005</name><description>3 -&gt; p-005 (24.9 m)</description><styleUrl>#pathStyle</styleUrl><LineString><tessellate>1</tessellate><coordinates>-73.793085,40.646589,0 -73.79298689995237,40.64637741447687,2.178168960622873</coordinates></LineString></Placemark>
<Placemark><name>P-006↔3</name><description>p-006 -&gt; 3 (54.2 m)</description><styleUrl>#pathStyle</styleUrl><LineString><tessellate>1</tessellate><coordinates>-73.7933780811068,40.64702237995571,2.812882058547339 -73.793085,40.646589,0</coordinates></LineString></Placemark>
<Placemark><name>P-007↔P-006</name><description>p-007 -&gt; p-006 (73.9 m)</description><styleUrl>#pathStyle</styleUrl><LineString><tessellate>1</tessellate><coordinates>-73.79414428586702,40.64670048485356,2.425501036308442 -73.7933780811068,40.64702237995571,2.812882058547339</coordinates></LineString></Placemark>
<Placemark><name>P-006↔P-004</name><description>p-006 -&gt; p-004 (76.1 m)</description><styleUrl>#pathStyle</styleUrl><LineString><tessellate>1</tessellate><coordinates>-73.7933780811068,40.64702237995571,2.812882058547339 -73.79258706088719,40.64735140905675,2.364168396208677</coordinates></LineString></Placemark>
<Placemark><name>P-004↔5</name><description>p-004 -&gt; 5 (53.7 m)</description><styleUrl>#pathStyle</styleUrl><LineString><tessellate>1</tessellate><coordinates>-73.79258706088719,40.64735140905675,2.364168396208677 -73.792401,40.64689,0</coordinates></LineString></Placemark>
<Placemark><name>5↔P-003</name><description>5 -&gt; p-003 (29.8 m)</description><styleUrl>#pathStyle</styleUrl><LineString><tessellate>1</tessellate><coordinates>-73.792401,40.64689,0 -73.7922057568367,40.64666719286353,2.271535999652992</coordinates></LineString></Placemark>
<Placemark><name>P-005↔P-003</name><description>p-005 -&gt; p-003 (73.4 m)</description><styleUrl>#pathStyle</styleUrl><LineString><tessellate>1</tessellate><coordinates>-73.79298689995237,40.64637741447687,2.178168960622873 -73.7922057568367,40.64666719286353,2.271535999652992</coordinates></LineString></Placemark>
<Placemark><name>P-001↔P-003</name><description>p-001 -&gt; p-003 (53.4 m)</description><styleUrl>#pathStyle</styleUrl><LineString><tessellate>1</tessellate><coordinates>-73.79165894895436,40.64690934103508,1.665783272518402 -73.7922057568367,40.64666719286353,2.271535999652992</coordinates></LineString></Placemark>
<Placemark><name>P-001↔7</name><description>p-001 -&gt; 7 (13.1 m)</description><styleUrl>#pathStyle</styleUrl><LineString><tessellate>1</tessellate><coordinates>-73.79165894895436,40.64690934103508,1.665783272518402 -73.791727,40.647015,0</coordinates></LineString></Placemark>
<Placemark><name>7↔BGRM CLAIM</name><description>7 -&gt; BGRM CLAIM (54.4 m)</description><styleUrl>#pathStyle</styleUrl><LineString><tessellate>1</tessellate><coordinates>-73.791727,40.647015,0 -73.791565,40.647489,0</coordinates></LineString></Placemark>
<Placemark><name>BGRM CLAIM↔P-002</name><description>BGRM CLAIM -&gt; p-002 (38.7 m)</description><styleUrl>#pathStyle</styleUrl><LineString><tessellate>1</tessellate><coordinates>-73.791565,40.647489,0 -73.79198549527403,40.64762843081123,2.902604281442591</coordinates></LineString></Placemark>
<Placemark><name>BGRM COLD↔P-002</name><description>BGRM COLD -&gt; p-002 (17.4 m)</description><styleUrl>#pathStyle</styleUrl><LineString><tessellate>1</tessellate><coordinates>-73.791797,40.647693,0 -73.79198549527403,40.64762843081123,2.902604281442591</coordinates></LineString></Placemark>
<Placemark><name>P-002↔P-004</name><description>p-002 -&gt; p-004 (59.4 m)</description><styleUrl>#pathStyle</styleUrl><LineString><tessellate>1</tessellate><coordinates>-73.79198549527403,40.64762843081123,2.902604281442591 -73.79258706088719,40.64735140905675,2.364168396208677</coordinates></LineString></Placemark>
<Placemark><name>P-002↔REROUTE</name><description>p-002 -&gt; REROUTE (31.4 m)</description><styleUrl>#pathStyle</styleUrl><LineString><tessellate>1</tessellate><coordinates>-73.79198549527403,40.64762843081123,2.902604281442591 -73.792181,40.647869,0</coordinates></LineString></Placemark>
<Placemark><name>REROUTE↔P-019</name><description>REROUTE -&gt; p-019 (27.4 m)</description><styleUrl>#pathStyle</styleUrl><LineString><tessellate>1</tessellate><coordinates>-73.792181,40.647869,0 -73.79249853771964,40.64781829943086,2.529038074626972</coordinates></LineString></Placemark>
<Placemark><name>REROUTE↔P-024</name><description>REROUTE -&gt; p-024 (54.1 m)</description><styleUrl>#pathStyle</styleUrl><LineString><tessellate>1</tessellate><coordinates>-73.792181,40.647869,0 -73.79169391025238,40.64818570415049,2.525836381541779</coordinates></LineString></Placemark>
<Placemark><name>P-024↔P-027</name><description>p-024 -&gt; p-027 (49.3 m)</description><styleUrl>#pathStyle</styleUrl><LineString><tessellate>1</tessellate><coordinates>-73.79169391025238,40.64818570415049,2.525836381541779 -73.7911971260929,40.64841996149068,2.578815272456088</coordinates></LineString></Placemark>
<Placemark><name>P-019↔P-024</name><description>p-019 -&gt; p-024 (79.2 m)</description><styleUrl>#pathStyle</styleUrl><LineString><tessellate>1</tessellate><coordinates>-73.79249853771964,40.64781829943086,2.529038074626972 -73.79169391025238,40.64818570415049,2.525836381541779</coordinates></LineString></Placemark>
<Placemark><name>P-018↔P-019</name><description>p-018 -&gt; p-019 (10.5 m)</description><styleUrl>#pathStyle</styleUrl><LineString><tessellate>1</tessellate><coordinates>-73.79260493571243,40.64776990427123,10.39778653938539 -73.79249853771964,40.64781829943086,2.529038074626972</coordinates></LineString></Placemark>
<Placemark><name>P-018↔P-016</name><description>p-018 -&gt; p-016 (62.2 m)</description><styleUrl>#pathStyle</styleUrl><LineString><tessellate>1</tessellate><coordinates>-73.79260493571243,40.64776990427123,10.39778653938539 -73.79324429687773,40.64749158797181,2.580003895406653</coordinates></LineString></Placemark>
<Placemark><name>P-016↔6</name><description>p-016 -&gt; 6 (40.4 m)</description><styleUrl>#pathStyle</styleUrl><LineString><tessellate>1</tessellate><coordinates>-73.79324429687773,40.64749158797181,2.580003895406653 -73.793479,40.647808,0</coordinates></LineString></Placemark>
<Placemark><name>P-017↔6</name><description>p-017 -&gt; 6 (41.2 m)</description><styleUrl>#pathStyle</styleUrl><LineString><tessellate>1</tessellate><coordinates>-73.79372265974658,40.64812908603643,1.86728431066761 -73.793479,40.647808,0</coordinates></LineString></Placemark>
<Placemark><name>P-013↔4</name><description>p-013 -&gt; 4 (42.6 m)</description><styleUrl>#pathStyle</styleUrl><LineString><tessellate>1</tessellate><coordinates>-73.79446356681366,40.64780542894688,1.961838914491292 -73.794219,40.64747,0</coordinates></LineString></Placemark>
<Placemark><name>4↔P-014</name><description>4 -&gt; p-014 (38.5 m)</description><styleUrl>#pathStyle</styleUrl><LineString><tessellate>1</tessellate><coordinates>-73.794219,40.64747,0 -73.79398524318731,40.64717225201148,2.579928124009137</coordinates></LineString></Placemark>
<Placemark><name>P-014↔P-010</name><description>p-014 -&gt; p-010 (39.3 m)</description><styleUrl>#pathStyle</styleUrl><LineString><tessellate>1</tessellate><coordinates>-73.79398524318731,40.64717225201148,2.579928124009137 -73.79439121085703,40.64699978525348,2.425459838917783</coordinates></LineString></Placemark>
<Placemark><name>P-014↔P-016</name><description>p-014 -&gt; p-016 (71.9 m)</description><styleUrl>#pathStyle</styleUrl><LineString><tessellate>1</tessellate><coordinates>-73.79398524318731,40.64717225201148,2.579928124009137 -73.79324429687773,40.64749158797181,2.580003895406653</coordinates></LineString></Placemark>
<Placemark><name>P-024↔12X</name><description>p-024 -&gt; 12X (45.3 m)</description><styleUrl>#pathStyle</styleUrl><LineString><tessellate>1</tessellate><coordinates>-73.79169391025238,40.64818570415049,2.525836381541779 -73.791951,40.648543,0</coordinates></LineString></Placemark>
<Placemark><name>P-024↔12</name><description>p-024 -&gt; 12 (50.0 m)</description><styleUrl>#pathStyle</styleUrl><LineString><tessellate>1</tessellate><coordinates>-73.79169391025238,40.64818570415049,2.525836381541779 -73.7918,40.648628,0</coordinates></LineString></Placemark>
<Placemark><name>P-025↔12</name><description>p-025 -&gt; 12 (33.7 m)</description><styleUrl>#pathStyle</styleUrl><LineString><tessellate>1</tessellate><coordinates>-73.79186000191183,40.64892783285454,1.915301704279515 -73.7918,40.648628,0</coordinates></LineString></Placemark>
<Placemark><name>P-023↔12X</name><description>p-023 -&gt; 12X (32.7 m)</description><styleUrl>#pathStyle</styleUrl><LineString><tessellate>1</tessellate><coordinates>-73.79214548521539,40.64879752766117,1.906563753564827 -73.791951,40.648543,0</coordinates></LineString></Placemark>
<Placemark><name>P-027↔P-028</name><description>p-027 -&gt; p-028 (66.9 m)</description><styleUrl>#pathStyle</styleUrl><LineString><tessellate>1</tessellate><coordinates>-73.7911971260929,40.64841996149068,2.578815272456088 -73.79047453724762,40.6486668195118,21.69535355788701</coordinates></LineString></Placemark>
<Placemark><name>P-027↔P-026</name><description>p-027 -&gt; p-026 (76.3 m)</description><styleUrl>#pathStyle</styleUrl><LineString><tessellate>1</tessellate><coordinates>-73.7911971260929,40.64841996149068,2.578815272456088 -73.79159428909496,40.64903596103307,1.957613726119136</coordinates></LineString></Placemark>
<Placemark><name>P-028↔14</name><description>p-028 -&gt; 14 (59.4 m)</description><styleUrl>#pathStyle</styleUrl><LineString><tessellate>1</tessellate><coordinates>-73.79047453724762,40.6486668195118,21.69535355788701 -73.79055,40.649198,0</coordinates></LineString></Placemark>
<Placemark><name>14↔P-029</name><description>14 -&gt; p-029 (27.7 m)</description><styleUrl>#pathStyle</styleUrl><LineString><tessellate>1</tessellate><coordinates>-73.79055,40.649198,0 -73.79065394195254,40.6494341369951,1.80731448624895</coordinates></LineString></Placemark>
<Placemark><name>P-033↔P-031</name><description>p-033 -&gt; p-031 (13.9 m)</description><styleUrl>#pathStyle</styleUrl><LineString><tessellate>1</tessellate><coordinates>-73.78991526714117,40.64882824671965,2.48252059310176 -73.79001080409444,40.64892982839961,14.14852694306023</coordinates></LineString></Placemark>
<Placemark><name>P-033↔FIS CLAIM BELT 4</name><description>p-033 -&gt; FIS CLAIM BELT 4 (35.3 m)</description><styleUrl>#pathStyle</styleUrl><LineString><tessellate>1</tessellate><coordinates>-73.78991526714117,40.64882824671965,2.48252059310176 -73.78992,40.648511,0</coordinates></LineString></Placemark>
<Placemark><name>FIS CLAIM BELT 4↔20</name><description>FIS CLAIM BELT 4 -&gt; 20 (76.8 m)</description><styleUrl>#pathStyle</styleUrl><LineString><tessellate>1</tessellate><coordinates>-73.78992,40.648511,0 -73.789011,40.648474,0</coordinates></LineString></Placemark>
<Placemark><name>P-033↔20</name><description>p-033 -&gt; 20 (85.9 m)</description><styleUrl>#pathStyle</styleUrl><LineString><tessellate>1</tessellate><coordinates>-73.78991526714117,40.64882824671965,2.48252059310176 -73.789011,40.648474,0</coordinates></LineString></Placemark>
<Placemark><name>P-034↔20</name><description>p-034 -&gt; 20 (83.2 m)</description><styleUrl>#pathStyle</styleUrl><LineString><tessellate>1</tessellate><coordinates>-73.78885018232977,40.64921188735947,2.165775684350366 -73.789011,40.648474,0</coordinates></LineString></Placemark>
<Placemark><name>P-034↔18</name><description>p-034 -&gt; 18 (26.2 m)</description><styleUrl>#pathStyle</styleUrl><LineString><tessellate>1</tessellate><coordinates>-73.78885018232977,40.64921188735947,2.165775684350366 -73.789134,40.649117,0</coordinates></LineString></Placemark>
<Placemark><name>P-033↔18</name><description>p-033 -&gt; 18 (73.3 m)</description><styleUrl>#pathStyle</styleUrl><LineString><tessellate>1</tessellate><coordinates>-73.78991526714117,40.64882824671965,2.48252059310176 -73.789134,40.649117,0</coordinates></LineString></Placemark>
<Placemark><name>P-034↔P-032</name><description>p-034 -&gt; p-032 (97.4 m)</description><styleUrl>#pathStyle</styleUrl><LineString><tessellate>1</tessellate><coordinates>-73.78885018232977,40.64921188735947,2.165775684350366 -73.7895870757838,40.64988649163897,1.961865454709895</coordinates></LineString></Placemark>
<Placemark><name>P-032↔16</name><description>p-032 -&gt; 16 (37.3 m)</description><styleUrl>#pathStyle</styleUrl><LineString><tessellate>1</tessellate><coordinates>-73.7895870757838,40.64988649163897,1.961865454709895 -73.789745,40.649573,0</coordinates></LineString></Placemark>
<Placemark><name>16↔P-031</name><description>16 -&gt; p-031 (75.0 m)</description><styleUrl>#pathStyle</styleUrl><LineString><tessellate>1</tessellate><coordinates>-73.789745,40.649573,0 -73.79001080409444,40.64892982839961,14.14852694306023</coordinates></LineString></Placemark>
<Placemark><name>P-030↔P-032</name><description>p-030 -&gt; p-032 (83.7 m)</description><styleUrl>#pathStyle</styleUrl><LineString><tessellate>1</tessellate><coordinates>-73.7904535156734,40.64951944646957,1.885654375983419 -73.7895870757838,40.64988649163897,1.961865454709895</coordinates></LineString></Placemark>
<Placemark><name>P-054↔P-068</name><description>p-054 -&gt; p-068 (42.3 m)</description><styleUrl>#pathStyle</styleUrl><LineString><tessellate>1</tessellate><coordinates>-73.7942861208244,40.64930395414349,1.86136033044902 -73.79452490360647,40.64963831367196,1.835366328812555</coordinates></LineString></Placemark>
<Placemark><name>8↔P-021</name><description>8 -&gt; p-021 (33.0 m)</description><styleUrl>#pathStyle</styleUrl><LineString><tessellate>1</tessellate><coordinates>-73.79287,40.648148,0 -73.79306433349846,40.64840504183208,1.893920564091607</coordinates></LineString></Placemark>
<Placemark><name>8↔P-018</name><description>8 -&gt; p-018 (47.6 m)</description><styleUrl>#pathStyle</styleUrl><LineString><tessellate>1</tessellate><coordinates>-73.79287,40.648148,0 -73.79260493571243,40.64776990427123,10.39778653938539</coordinates></LineString></Placemark>
<Placemark><name>8X↔P-022</name><description>8X -&gt; p-022 (32.0 m)</description><styleUrl>#pathStyle</styleUrl><LineString><tessellate>1</tessellate><coordinates>-73.792783,40.648199,0 -73.79296841122556,40.64845003968254,1.875999447347576</coordinates></LineString></Placemark>
<Placemark><name>8X↔P-019</name><description>8X -&gt; p-019 (48.7 m)</description><styleUrl>#pathStyle</styleUrl><LineString><tessellate>1</tessellate><coordinates>-73.792783,40.648199,0 -73.79249853771964,40.64781829943086,2.529038074626972</coordinates></LineString></Placemark>
<Placemark><name>FIS BELT↔P-002</name><description>FIS BELT -&gt; p-002 (26.5 m)</description><styleUrl>#pathStyle</styleUrl><LineString><tessellate>1</tessellate><coordinates>-73.791754,40.647789,0 -73.79198549527403,40.64762843081123,2.902604281442591</coordinates></LineString></Placemark>
<Placemark><name>P-028↔PIT</name><description>p-028 -&gt; PIT (25.1 m)</description><styleUrl>#pathStyle</styleUrl><LineString><tessellate>1</tessellate><coordinates>-73.79047453724762,40.6486668195118,21.69535355788701 -73.79023579181046,40.64880222534049,0</coordinates></LineString></Placemark>
<Placemark><name>PIT↔P-031</name><description>PIT -&gt; p-031 (23.7 m)</description><styleUrl>#pathStyle</styleUrl><LineString><tessellate>1</tessellate><coordinates>-73.79023579181046,40.64880222534049,0 -73.79001080409444,40.64892982839961,14.14852694306023</coordinates></LineString></Placemark>
<Placemark><name>PPS↔P-001</name><description>PPS -&gt; p-001 (44.6 m)</description><styleUrl>#pathStyle</styleUrl><LineString><tessellate>1</tessellate><coordinates>-73.79146724939348,40.64653530005305,0 -73.79165894895436,40.64690934103508,1.665783272518402</coordinates></LineString></Placemark>
<Placemark><name>BGRM CLAIM↔P-077</name><description>BGRM CLAIM -&gt; p-077 (62.3 m)</description><styleUrl>#pathStyle</styleUrl><LineString><tessellate>1</tessellate><coordinates>-73.791565,40.647489,0 -73.79139214754106,40.646944272411574,0</coordinates></LineString></Placemark>
<Placemark><name>P-077↔PPS</name><description>p-077 -&gt; PPS (45.9 m)</description><styleUrl>#pathStyle</styleUrl><LineString><tessellate>1</tessellate><coordinates>-73.79139214754106,40.646944272411574,0 -73.79146724939348,40.64653530005305,0</coordinates></LineString></Placemark>
<Placemark><name>P-001↔P-077</name><description>p-001 -&gt; p-077 (22.8 m)</description><styleUrl>#pathStyle</styleUrl><LineString><tessellate>1</tessellate><coordinates>-73.79165894895436,40.64690934103508,1.665783272518402 -73.79139214754106,40.646944272411574,0</coordinates></LineString></Placemark>
</Folder>
</Document></kml>